<?xml version="1.0" encoding="UTF-8"?>
<kml xmlns="http://www.opengis.net/kml/2.2" xmlns:gx="http://www.google.com/kml/ext/2.2" xmlns:kml="http://www.opengis.net/kml/2.2" xmlns:atom="http://www.w3.org/2005/Atom">
<Document>
	<name>CGI Points v3.kml</name>
	<StyleMap id="icon-503-0288D1-nodesc">
		<Pair>
			<key>normal</key>
			<styleUrl>#icon-503-0288D1-nodesc-normal0</styleUrl>
		</Pair>
		<Pair>
			<key>highlight</key>
			<styleUrl>#icon-503-0288D1-nodesc-highlight9</styleUrl>
		</Pair>
	</StyleMap>
	<Style id="icon-503-0288D1-nodesc-highlight">
		<IconStyle>
			<Icon>
				<href>http://maps.google.com/mapfiles/kml/paddle/ltblu-circle.png</href>
			</Icon>
			<hotSpot x="32" y="1" xunits="pixels" yunits="pixels"/>
		</IconStyle>
		<LabelStyle>
			<color>ffffff55</color>
		</LabelStyle>
		<BalloonStyle>
			<text><![CDATA[<h3>$[name]</h3>]]></text>
		</BalloonStyle>
		<ListStyle>
			<ItemIcon>
				<href>http://maps.google.com/mapfiles/kml/paddle/ltblu-circle-lv.png</href>
			</ItemIcon>
		</ListStyle>
	</Style>
	<Style id="icon-503-0288D1-nodesc-highlight10">
		<IconStyle>
			<Icon>
				<href>http://maps.google.com/mapfiles/kml/paddle/ltblu-circle.png</href>
			</Icon>
			<hotSpot x="32" y="1" xunits="pixels" yunits="pixels"/>
		</IconStyle>
		<LabelStyle>
			<color>ffffff55</color>
		</LabelStyle>
		<BalloonStyle>
			<text><![CDATA[<h3>$[name]</h3>]]></text>
		</BalloonStyle>
		<ListStyle>
			<ItemIcon>
				<href>http://maps.google.com/mapfiles/kml/paddle/ltblu-circle-lv.png</href>
			</ItemIcon>
		</ListStyle>
	</Style>
	<Style id="icon-503-0288D1-nodesc-highlight11">
		<IconStyle>
			<Icon>
				<href>http://maps.google.com/mapfiles/kml/paddle/ltblu-circle.png</href>
			</Icon>
			<hotSpot x="32" y="1" xunits="pixels" yunits="pixels"/>
		</IconStyle>
		<LabelStyle>
			<color>ffffff55</color>
		</LabelStyle>
		<BalloonStyle>
			<text><![CDATA[<h3>$[name]</h3>]]></text>
		</BalloonStyle>
		<ListStyle>
			<ItemIcon>
				<href>http://maps.google.com/mapfiles/kml/paddle/ltblu-circle-lv.png</href>
			</ItemIcon>
		</ListStyle>
	</Style>
	<Style id="icon-503-0288D1-nodesc-highlight12">
		<IconStyle>
			<Icon>
				<href>http://maps.google.com/mapfiles/kml/paddle/ltblu-circle.png</href>
			</Icon>
			<hotSpot x="32" y="1" xunits="pixels" yunits="pixels"/>
		</IconStyle>
		<LabelStyle>
			<color>ffffff55</color>
		</LabelStyle>
		<BalloonStyle>
			<text><![CDATA[<h3>$[name]</h3>]]></text>
		</BalloonStyle>
		<ListStyle>
			<ItemIcon>
				<href>http://maps.google.com/mapfiles/kml/paddle/ltblu-circle-lv.png</href>
			</ItemIcon>
		</ListStyle>
	</Style>
	<Style id="icon-503-0288D1-nodesc-highlight13">
		<IconStyle>
			<Icon>
				<href>http://maps.google.com/mapfiles/kml/paddle/ltblu-circle.png</href>
			</Icon>
			<hotSpot x="32" y="1" xunits="pixels" yunits="pixels"/>
		</IconStyle>
		<LabelStyle>
			<color>ffffff55</color>
		</LabelStyle>
		<BalloonStyle>
			<text><![CDATA[<h3>$[name]</h3>]]></text>
		</BalloonStyle>
		<ListStyle>
			<ItemIcon>
				<href>http://maps.google.com/mapfiles/kml/paddle/ltblu-circle-lv.png</href>
			</ItemIcon>
		</ListStyle>
	</Style>
	<Style id="icon-503-0288D1-nodesc-highlight14">
		<IconStyle>
			<Icon>
				<href>http://maps.google.com/mapfiles/kml/paddle/ltblu-circle.png</href>
			</Icon>
			<hotSpot x="32" y="1" xunits="pixels" yunits="pixels"/>
		</IconStyle>
		<LabelStyle>
			<color>ffffff55</color>
		</LabelStyle>
		<BalloonStyle>
			<text><![CDATA[<h3>$[name]</h3>]]></text>
		</BalloonStyle>
		<ListStyle>
			<ItemIcon>
				<href>http://maps.google.com/mapfiles/kml/paddle/ltblu-circle-lv.png</href>
			</ItemIcon>
		</ListStyle>
	</Style>
	<Style id="icon-503-0288D1-nodesc-highlight15">
		<IconStyle>
			<Icon>
				<href>http://maps.google.com/mapfiles/kml/paddle/ltblu-circle.png</href>
			</Icon>
			<hotSpot x="32" y="1" xunits="pixels" yunits="pixels"/>
		</IconStyle>
		<LabelStyle>
			<color>ffffff55</color>
		</LabelStyle>
		<BalloonStyle>
			<text><![CDATA[<h3>$[name]</h3>]]></text>
		</BalloonStyle>
		<ListStyle>
			<ItemIcon>
				<href>http://maps.google.com/mapfiles/kml/paddle/ltblu-circle-lv.png</href>
			</ItemIcon>
		</ListStyle>
	</Style>
	<Style id="icon-503-0288D1-nodesc-highlight2">
		<IconStyle>
			<Icon>
				<href>http://maps.google.com/mapfiles/kml/paddle/ltblu-circle.png</href>
			</Icon>
			<hotSpot x="32" y="1" xunits="pixels" yunits="pixels"/>
		</IconStyle>
		<LabelStyle>
			<color>ffffff55</color>
		</LabelStyle>
		<BalloonStyle>
			<text><![CDATA[<h3>$[name]</h3>]]></text>
		</BalloonStyle>
		<ListStyle>
			<ItemIcon>
				<href>http://maps.google.com/mapfiles/kml/paddle/ltblu-circle-lv.png</href>
			</ItemIcon>
		</ListStyle>
	</Style>
	<Style id="icon-503-0288D1-nodesc-highlight4">
		<IconStyle>
			<Icon>
				<href>http://maps.google.com/mapfiles/kml/paddle/ltblu-circle.png</href>
			</Icon>
			<hotSpot x="32" y="1" xunits="pixels" yunits="pixels"/>
		</IconStyle>
		<LabelStyle>
			<color>ffffff55</color>
		</LabelStyle>
		<BalloonStyle>
			<text><![CDATA[<h3>$[name]</h3>]]></text>
		</BalloonStyle>
		<ListStyle>
			<ItemIcon>
				<href>http://maps.google.com/mapfiles/kml/paddle/ltblu-circle-lv.png</href>
			</ItemIcon>
		</ListStyle>
	</Style>
	<Style id="icon-503-0288D1-nodesc-highlight5">
		<IconStyle>
			<Icon>
				<href>http://maps.google.com/mapfiles/kml/paddle/ltblu-circle.png</href>
			</Icon>
			<hotSpot x="32" y="1" xunits="pixels" yunits="pixels"/>
		</IconStyle>
		<LabelStyle>
			<color>ffffff55</color>
		</LabelStyle>
		<BalloonStyle>
			<text><![CDATA[<h3>$[name]</h3>]]></text>
		</BalloonStyle>
		<ListStyle>
			<ItemIcon>
				<href>http://maps.google.com/mapfiles/kml/paddle/ltblu-circle-lv.png</href>
			</ItemIcon>
		</ListStyle>
	</Style>
	<Style id="icon-503-0288D1-nodesc-highlight6">
		<IconStyle>
			<Icon>
				<href>http://maps.google.com/mapfiles/kml/paddle/ltblu-circle.png</href>
			</Icon>
			<hotSpot x="32" y="1" xunits="pixels" yunits="pixels"/>
		</IconStyle>
		<LabelStyle>
			<color>ffffff55</color>
		</LabelStyle>
		<BalloonStyle>
			<text><![CDATA[<h3>$[name]</h3>]]></text>
		</BalloonStyle>
		<ListStyle>
			<ItemIcon>
				<href>http://maps.google.com/mapfiles/kml/paddle/ltblu-circle-lv.png</href>
			</ItemIcon>
		</ListStyle>
	</Style>
	<Style id="icon-503-0288D1-nodesc-highlight7">
		<IconStyle>
			<Icon>
				<href>http://maps.google.com/mapfiles/kml/paddle/ltblu-circle.png</href>
			</Icon>
			<hotSpot x="32" y="1" xunits="pixels" yunits="pixels"/>
		</IconStyle>
		<LabelStyle>
			<color>ffffff55</color>
		</LabelStyle>
		<BalloonStyle>
			<text><![CDATA[<h3>$[name]</h3>]]></text>
		</BalloonStyle>
		<ListStyle>
			<ItemIcon>
				<href>http://maps.google.com/mapfiles/kml/paddle/ltblu-circle-lv.png</href>
			</ItemIcon>
		</ListStyle>
	</Style>
	<Style id="icon-503-0288D1-nodesc-highlight8">
		<IconStyle>
			<Icon>
				<href>http://maps.google.com/mapfiles/kml/paddle/ltblu-circle.png</href>
			</Icon>
			<hotSpot x="32" y="1" xunits="pixels" yunits="pixels"/>
		</IconStyle>
		<LabelStyle>
			<color>ffffff55</color>
		</LabelStyle>
		<BalloonStyle>
			<text><![CDATA[<h3>$[name]</h3>]]></text>
		</BalloonStyle>
		<ListStyle>
			<ItemIcon>
				<href>http://maps.google.com/mapfiles/kml/paddle/ltblu-circle-lv.png</href>
			</ItemIcon>
		</ListStyle>
	</Style>
	<Style id="icon-503-0288D1-nodesc-highlight9">
		<IconStyle>
			<Icon>
				<href>http://maps.google.com/mapfiles/kml/paddle/ltblu-circle.png</href>
			</Icon>
			<hotSpot x="32" y="1" xunits="pixels" yunits="pixels"/>
		</IconStyle>
		<LabelStyle>
			<color>ffffff55</color>
		</LabelStyle>
		<BalloonStyle>
			<text><![CDATA[<h3>$[name]</h3>]]></text>
		</BalloonStyle>
		<ListStyle>
			<ItemIcon>
				<href>http://maps.google.com/mapfiles/kml/paddle/ltblu-circle-lv.png</href>
			</ItemIcon>
		</ListStyle>
	</Style>
	<Style id="icon-503-0288D1-nodesc-normal">
		<IconStyle>
			<Icon>
				<href>http://maps.google.com/mapfiles/kml/paddle/ltblu-circle.png</href>
			</Icon>
			<hotSpot x="32" y="1" xunits="pixels" yunits="pixels"/>
		</IconStyle>
		<LabelStyle>
			<color>ffffff55</color>
		</LabelStyle>
		<BalloonStyle>
			<text><![CDATA[<h3>$[name]</h3>]]></text>
		</BalloonStyle>
		<ListStyle>
			<ItemIcon>
				<href>http://maps.google.com/mapfiles/kml/paddle/ltblu-circle-lv.png</href>
			</ItemIcon>
		</ListStyle>
	</Style>
	<Style id="icon-503-0288D1-nodesc-normal0">
		<IconStyle>
			<Icon>
				<href>http://maps.google.com/mapfiles/kml/paddle/ltblu-circle.png</href>
			</Icon>
			<hotSpot x="32" y="1" xunits="pixels" yunits="pixels"/>
		</IconStyle>
		<LabelStyle>
			<color>ffffff55</color>
		</LabelStyle>
		<BalloonStyle>
			<text><![CDATA[<h3>$[name]</h3>]]></text>
		</BalloonStyle>
		<ListStyle>
			<ItemIcon>
				<href>http://maps.google.com/mapfiles/kml/paddle/ltblu-circle-lv.png</href>
			</ItemIcon>
		</ListStyle>
	</Style>
	<Style id="icon-503-0288D1-nodesc-normal1">
		<IconStyle>
			<Icon>
				<href>http://maps.google.com/mapfiles/kml/paddle/ltblu-circle.png</href>
			</Icon>
			<hotSpot x="32" y="1" xunits="pixels" yunits="pixels"/>
		</IconStyle>
		<LabelStyle>
			<color>ffffff55</color>
		</LabelStyle>
		<BalloonStyle>
			<text><![CDATA[<h3>$[name]</h3>]]></text>
		</BalloonStyle>
		<ListStyle>
			<ItemIcon>
				<href>http://maps.google.com/mapfiles/kml/paddle/ltblu-circle-lv.png</href>
			</ItemIcon>
		</ListStyle>
	</Style>
	<Style id="icon-503-0288D1-nodesc-normal11">
		<IconStyle>
			<Icon>
				<href>http://maps.google.com/mapfiles/kml/paddle/ltblu-circle.png</href>
			</Icon>
			<hotSpot x="32" y="1" xunits="pixels" yunits="pixels"/>
		</IconStyle>
		<LabelStyle>
			<color>ffffff55</color>
		</LabelStyle>
		<BalloonStyle>
			<text><![CDATA[<h3>$[name]</h3>]]></text>
		</BalloonStyle>
		<ListStyle>
			<ItemIcon>
				<href>http://maps.google.com/mapfiles/kml/paddle/ltblu-circle-lv.png</href>
			</ItemIcon>
		</ListStyle>
	</Style>
	<Style id="icon-503-0288D1-nodesc-normal12">
		<IconStyle>
			<Icon>
				<href>http://maps.google.com/mapfiles/kml/paddle/ltblu-circle.png</href>
			</Icon>
			<hotSpot x="32" y="1" xunits="pixels" yunits="pixels"/>
		</IconStyle>
		<LabelStyle>
			<color>ffffff55</color>
		</LabelStyle>
		<BalloonStyle>
			<text><![CDATA[<h3>$[name]</h3>]]></text>
		</BalloonStyle>
		<ListStyle>
			<ItemIcon>
				<href>http://maps.google.com/mapfiles/kml/paddle/ltblu-circle-lv.png</href>
			</ItemIcon>
		</ListStyle>
	</Style>
	<Style id="icon-503-0288D1-nodesc-normal13">
		<IconStyle>
			<Icon>
				<href>http://maps.google.com/mapfiles/kml/paddle/ltblu-circle.png</href>
			</Icon>
			<hotSpot x="32" y="1" xunits="pixels" yunits="pixels"/>
		</IconStyle>
		<LabelStyle>
			<color>ffffff55</color>
		</LabelStyle>
		<BalloonStyle>
			<text><![CDATA[<h3>$[name]</h3>]]></text>
		</BalloonStyle>
		<ListStyle>
			<ItemIcon>
				<href>http://maps.google.com/mapfiles/kml/paddle/ltblu-circle-lv.png</href>
			</ItemIcon>
		</ListStyle>
	</Style>
	<Style id="icon-503-0288D1-nodesc-normal14">
		<IconStyle>
			<Icon>
				<href>http://maps.google.com/mapfiles/kml/paddle/ltblu-circle.png</href>
			</Icon>
			<hotSpot x="32" y="1" xunits="pixels" yunits="pixels"/>
		</IconStyle>
		<LabelStyle>
			<color>ffffff55</color>
		</LabelStyle>
		<BalloonStyle>
			<text><![CDATA[<h3>$[name]</h3>]]></text>
		</BalloonStyle>
		<ListStyle>
			<ItemIcon>
				<href>http://maps.google.com/mapfiles/kml/paddle/ltblu-circle-lv.png</href>
			</ItemIcon>
		</ListStyle>
	</Style>
	<Style id="icon-503-0288D1-nodesc-normal15">
		<IconStyle>
			<Icon>
				<href>http://maps.google.com/mapfiles/kml/paddle/ltblu-circle.png</href>
			</Icon>
			<hotSpot x="32" y="1" xunits="pixels" yunits="pixels"/>
		</IconStyle>
		<LabelStyle>
			<color>ffffff55</color>
		</LabelStyle>
		<BalloonStyle>
			<text><![CDATA[<h3>$[name]</h3>]]></text>
		</BalloonStyle>
		<ListStyle>
			<ItemIcon>
				<href>http://maps.google.com/mapfiles/kml/paddle/ltblu-circle-lv.png</href>
			</ItemIcon>
		</ListStyle>
	</Style>
	<Style id="icon-503-0288D1-nodesc-normal4">
		<IconStyle>
			<Icon>
				<href>http://maps.google.com/mapfiles/kml/paddle/ltblu-circle.png</href>
			</Icon>
			<hotSpot x="32" y="1" xunits="pixels" yunits="pixels"/>
		</IconStyle>
		<LabelStyle>
			<color>ffffff55</color>
		</LabelStyle>
		<BalloonStyle>
			<text><![CDATA[<h3>$[name]</h3>]]></text>
		</BalloonStyle>
		<ListStyle>
			<ItemIcon>
				<href>http://maps.google.com/mapfiles/kml/paddle/ltblu-circle-lv.png</href>
			</ItemIcon>
		</ListStyle>
	</Style>
	<Style id="icon-503-0288D1-nodesc-normal5">
		<IconStyle>
			<Icon>
				<href>http://maps.google.com/mapfiles/kml/paddle/ltblu-circle.png</href>
			</Icon>
			<hotSpot x="32" y="1" xunits="pixels" yunits="pixels"/>
		</IconStyle>
		<LabelStyle>
			<color>ffffff55</color>
		</LabelStyle>
		<BalloonStyle>
			<text><![CDATA[<h3>$[name]</h3>]]></text>
		</BalloonStyle>
		<ListStyle>
			<ItemIcon>
				<href>http://maps.google.com/mapfiles/kml/paddle/ltblu-circle-lv.png</href>
			</ItemIcon>
		</ListStyle>
	</Style>
	<Style id="icon-503-0288D1-nodesc-normal6">
		<IconStyle>
			<Icon>
				<href>http://maps.google.com/mapfiles/kml/paddle/ltblu-circle.png</href>
			</Icon>
			<hotSpot x="32" y="1" xunits="pixels" yunits="pixels"/>
		</IconStyle>
		<LabelStyle>
			<color>ffffff55</color>
		</LabelStyle>
		<BalloonStyle>
			<text><![CDATA[<h3>$[name]</h3>]]></text>
		</BalloonStyle>
		<ListStyle>
			<ItemIcon>
				<href>http://maps.google.com/mapfiles/kml/paddle/ltblu-circle-lv.png</href>
			</ItemIcon>
		</ListStyle>
	</Style>
	<Style id="icon-503-0288D1-nodesc-normal7">
		<IconStyle>
			<Icon>
				<href>http://maps.google.com/mapfiles/kml/paddle/ltblu-circle.png</href>
			</Icon>
			<hotSpot x="32" y="1" xunits="pixels" yunits="pixels"/>
		</IconStyle>
		<LabelStyle>
			<color>ffffff55</color>
		</LabelStyle>
		<BalloonStyle>
			<text><![CDATA[<h3>$[name]</h3>]]></text>
		</BalloonStyle>
		<ListStyle>
			<ItemIcon>
				<href>http://maps.google.com/mapfiles/kml/paddle/ltblu-circle-lv.png</href>
			</ItemIcon>
		</ListStyle>
	</Style>
	<Style id="icon-503-0288D1-nodesc-normal8">
		<IconStyle>
			<Icon>
				<href>http://maps.google.com/mapfiles/kml/paddle/ltblu-circle.png</href>
			</Icon>
			<hotSpot x="32" y="1" xunits="pixels" yunits="pixels"/>
		</IconStyle>
		<LabelStyle>
			<color>ffffff55</color>
		</LabelStyle>
		<BalloonStyle>
			<text><![CDATA[<h3>$[name]</h3>]]></text>
		</BalloonStyle>
		<ListStyle>
			<ItemIcon>
				<href>http://maps.google.com/mapfiles/kml/paddle/ltblu-circle-lv.png</href>
			</ItemIcon>
		</ListStyle>
	</Style>
	<Style id="icon-503-0288D1-nodesc-normal9">
		<IconStyle>
			<Icon>
				<href>http://maps.google.com/mapfiles/kml/paddle/ltblu-circle.png</href>
			</Icon>
			<hotSpot x="32" y="1" xunits="pixels" yunits="pixels"/>
		</IconStyle>
		<LabelStyle>
			<color>ffffff55</color>
		</LabelStyle>
		<BalloonStyle>
			<text><![CDATA[<h3>$[name]</h3>]]></text>
		</BalloonStyle>
		<ListStyle>
			<ItemIcon>
				<href>http://maps.google.com/mapfiles/kml/paddle/ltblu-circle-lv.png</href>
			</ItemIcon>
		</ListStyle>
	</Style>
	<StyleMap id="icon-503-0288D1-nodesc1">
		<Pair>
			<key>normal</key>
			<styleUrl>#icon-503-0288D1-nodesc-normal13</styleUrl>
		</Pair>
		<Pair>
			<key>highlight</key>
			<styleUrl>#icon-503-0288D1-nodesc-highlight14</styleUrl>
		</Pair>
	</StyleMap>
	<StyleMap id="icon-503-0288D1-nodesc10">
		<Pair>
			<key>normal</key>
			<styleUrl>#icon-503-0288D1-nodesc-normal6</styleUrl>
		</Pair>
		<Pair>
			<key>highlight</key>
			<styleUrl>#icon-503-0288D1-nodesc-highlight13</styleUrl>
		</Pair>
	</StyleMap>
	<StyleMap id="icon-503-0288D1-nodesc11">
		<Pair>
			<key>normal</key>
			<styleUrl>#icon-503-0288D1-nodesc-normal7</styleUrl>
		</Pair>
		<Pair>
			<key>highlight</key>
			<styleUrl>#icon-503-0288D1-nodesc-highlight12</styleUrl>
		</Pair>
	</StyleMap>
	<StyleMap id="icon-503-0288D1-nodesc12">
		<Pair>
			<key>normal</key>
			<styleUrl>#icon-503-0288D1-nodesc-normal15</styleUrl>
		</Pair>
		<Pair>
			<key>highlight</key>
			<styleUrl>#icon-503-0288D1-nodesc-highlight8</styleUrl>
		</Pair>
	</StyleMap>
	<StyleMap id="icon-503-0288D1-nodesc13">
		<Pair>
			<key>normal</key>
			<styleUrl>#icon-503-0288D1-nodesc-normal12</styleUrl>
		</Pair>
		<Pair>
			<key>highlight</key>
			<styleUrl>#icon-503-0288D1-nodesc-highlight4</styleUrl>
		</Pair>
	</StyleMap>
	<StyleMap id="icon-503-0288D1-nodesc14">
		<Pair>
			<key>normal</key>
			<styleUrl>#icon-503-0288D1-nodesc-normal14</styleUrl>
		</Pair>
		<Pair>
			<key>highlight</key>
			<styleUrl>#icon-503-0288D1-nodesc-highlight10</styleUrl>
		</Pair>
	</StyleMap>
	<StyleMap id="icon-503-0288D1-nodesc15">
		<Pair>
			<key>normal</key>
			<styleUrl>#icon-503-0288D1-nodesc-normal1</styleUrl>
		</Pair>
		<Pair>
			<key>highlight</key>
			<styleUrl>#icon-503-0288D1-nodesc-highlight11</styleUrl>
		</Pair>
	</StyleMap>
	<StyleMap id="icon-503-0288D1-nodesc2">
		<Pair>
			<key>normal</key>
			<styleUrl>#icon-503-0288D1-nodesc-normal4</styleUrl>
		</Pair>
		<Pair>
			<key>highlight</key>
			<styleUrl>#icon-503-0288D1-nodesc-highlight7</styleUrl>
		</Pair>
	</StyleMap>
	<StyleMap id="icon-503-0288D1-nodesc3">
		<Pair>
			<key>normal</key>
			<styleUrl>#icon-503-0288D1-nodesc-normal5</styleUrl>
		</Pair>
		<Pair>
			<key>highlight</key>
			<styleUrl>#icon-503-0288D1-nodesc-highlight2</styleUrl>
		</Pair>
	</StyleMap>
	<StyleMap id="icon-503-0288D1-nodesc5">
		<Pair>
			<key>normal</key>
			<styleUrl>#icon-503-0288D1-nodesc-normal9</styleUrl>
		</Pair>
		<Pair>
			<key>highlight</key>
			<styleUrl>#icon-503-0288D1-nodesc-highlight6</styleUrl>
		</Pair>
	</StyleMap>
	<StyleMap id="icon-503-0288D1-nodesc6">
		<Pair>
			<key>normal</key>
			<styleUrl>#icon-503-0288D1-nodesc-normal</styleUrl>
		</Pair>
		<Pair>
			<key>highlight</key>
			<styleUrl>#icon-503-0288D1-nodesc-highlight15</styleUrl>
		</Pair>
	</StyleMap>
	<StyleMap id="icon-503-0288D1-nodesc8">
		<Pair>
			<key>normal</key>
			<styleUrl>#icon-503-0288D1-nodesc-normal11</styleUrl>
		</Pair>
		<Pair>
			<key>highlight</key>
			<styleUrl>#icon-503-0288D1-nodesc-highlight</styleUrl>
		</Pair>
	</StyleMap>
	<StyleMap id="icon-503-0288D1-nodesc9">
		<Pair>
			<key>normal</key>
			<styleUrl>#icon-503-0288D1-nodesc-normal8</styleUrl>
		</Pair>
		<Pair>
			<key>highlight</key>
			<styleUrl>#icon-503-0288D1-nodesc-highlight5</styleUrl>
		</Pair>
	</StyleMap>
	<StyleMap id="m_ylw-pushpin2">
		<Pair>
			<key>normal</key>
			<styleUrl>#s_ylw-pushpin2</styleUrl>
		</Pair>
		<Pair>
			<key>highlight</key>
			<styleUrl>#s_ylw-pushpin_hl2</styleUrl>
		</Pair>
	</StyleMap>
	<StyleMap id="msn_ltblu-circle">
		<Pair>
			<key>normal</key>
			<styleUrl>#sn_ltblu-circle00</styleUrl>
		</Pair>
		<Pair>
			<key>highlight</key>
			<styleUrl>#sh_ltblu-circle3</styleUrl>
		</Pair>
	</StyleMap>
	<StyleMap id="msn_ltblu-circle0">
		<Pair>
			<key>normal</key>
			<styleUrl>#sn_ltblu-circle4</styleUrl>
		</Pair>
		<Pair>
			<key>highlight</key>
			<styleUrl>#sh_ltblu-circle4</styleUrl>
		</Pair>
	</StyleMap>
	<StyleMap id="msn_ltblu-circle1">
		<Pair>
			<key>normal</key>
			<styleUrl>#sn_ltblu-circle0</styleUrl>
		</Pair>
		<Pair>
			<key>highlight</key>
			<styleUrl>#sh_ltblu-circle</styleUrl>
		</Pair>
	</StyleMap>
	<StyleMap id="msn_ltblu-circle2">
		<Pair>
			<key>normal</key>
			<styleUrl>#sn_ltblu-circle1</styleUrl>
		</Pair>
		<Pair>
			<key>highlight</key>
			<styleUrl>#sh_ltblu-circle1</styleUrl>
		</Pair>
	</StyleMap>
	<StyleMap id="msn_ltblu-circle3">
		<Pair>
			<key>normal</key>
			<styleUrl>#sn_ltblu-circle</styleUrl>
		</Pair>
		<Pair>
			<key>highlight</key>
			<styleUrl>#sh_ltblu-circle0</styleUrl>
		</Pair>
	</StyleMap>
	<StyleMap id="msn_ltblu-circle4">
		<Pair>
			<key>normal</key>
			<styleUrl>#sn_ltblu-circle3</styleUrl>
		</Pair>
		<Pair>
			<key>highlight</key>
			<styleUrl>#sh_ltblu-circle2</styleUrl>
		</Pair>
	</StyleMap>
	<StyleMap id="msn_red-diamond">
		<Pair>
			<key>normal</key>
			<styleUrl>#sn_red-diamond0</styleUrl>
		</Pair>
		<Pair>
			<key>highlight</key>
			<styleUrl>#sh_red-diamond</styleUrl>
		</Pair>
	</StyleMap>
	<StyleMap id="msn_red-diamond0">
		<Pair>
			<key>normal</key>
			<styleUrl>#sn_red-diamond</styleUrl>
		</Pair>
		<Pair>
			<key>highlight</key>
			<styleUrl>#sh_red-diamond0</styleUrl>
		</Pair>
	</StyleMap>
	<Style id="s_ylw-pushpin2">
		<IconStyle>
			<scale>1.1</scale>
			<Icon>
				<href>http://maps.google.com/mapfiles/kml/paddle/ltblu-circle.png</href>
			</Icon>
			<hotSpot x="32" y="1" xunits="pixels" yunits="pixels"/>
		</IconStyle>
		<LabelStyle>
			<color>ffffff55</color>
		</LabelStyle>
		<ListStyle>
			<ItemIcon>
				<href>http://maps.google.com/mapfiles/kml/paddle/ltblu-circle-lv.png</href>
			</ItemIcon>
		</ListStyle>
	</Style>
	<Style id="s_ylw-pushpin_hl2">
		<IconStyle>
			<scale>1.3</scale>
			<Icon>
				<href>http://maps.google.com/mapfiles/kml/paddle/ltblu-circle.png</href>
			</Icon>
			<hotSpot x="32" y="1" xunits="pixels" yunits="pixels"/>
		</IconStyle>
		<LabelStyle>
			<color>ffffff55</color>
		</LabelStyle>
		<ListStyle>
			<ItemIcon>
				<href>http://maps.google.com/mapfiles/kml/paddle/ltblu-circle-lv.png</href>
			</ItemIcon>
		</ListStyle>
	</Style>
	<Style id="sh_ltblu-circle">
		<IconStyle>
			<scale>1.3</scale>
			<Icon>
				<href>http://maps.google.com/mapfiles/kml/paddle/ltblu-circle.png</href>
			</Icon>
			<hotSpot x="32" y="1" xunits="pixels" yunits="pixels"/>
		</IconStyle>
		<LabelStyle>
			<color>ffffff55</color>
		</LabelStyle>
		<ListStyle>
			<ItemIcon>
				<href>http://maps.google.com/mapfiles/kml/paddle/ltblu-circle-lv.png</href>
			</ItemIcon>
		</ListStyle>
	</Style>
	<Style id="sh_ltblu-circle0">
		<IconStyle>
			<scale>1.18182</scale>
			<Icon>
				<href>http://maps.google.com/mapfiles/kml/paddle/ltblu-circle.png</href>
			</Icon>
			<hotSpot x="32" y="1" xunits="pixels" yunits="pixels"/>
		</IconStyle>
		<LabelStyle>
			<color>ffffff55</color>
		</LabelStyle>
		<ListStyle>
			<ItemIcon>
				<href>http://maps.google.com/mapfiles/kml/paddle/ltblu-circle-lv.png</href>
			</ItemIcon>
		</ListStyle>
	</Style>
	<Style id="sh_ltblu-circle1">
		<IconStyle>
			<scale>1.18182</scale>
			<Icon>
				<href>http://maps.google.com/mapfiles/kml/paddle/ltblu-circle.png</href>
			</Icon>
			<hotSpot x="32" y="1" xunits="pixels" yunits="pixels"/>
		</IconStyle>
		<LabelStyle>
			<color>ffffff55</color>
		</LabelStyle>
		<ListStyle>
			<ItemIcon>
				<href>http://maps.google.com/mapfiles/kml/paddle/ltblu-circle-lv.png</href>
			</ItemIcon>
		</ListStyle>
	</Style>
	<Style id="sh_ltblu-circle2">
		<IconStyle>
			<scale>1.18182</scale>
			<Icon>
				<href>http://maps.google.com/mapfiles/kml/paddle/ltblu-circle.png</href>
			</Icon>
			<hotSpot x="32" y="1" xunits="pixels" yunits="pixels"/>
		</IconStyle>
		<LabelStyle>
			<color>ffffff55</color>
		</LabelStyle>
		<ListStyle>
			<ItemIcon>
				<href>http://maps.google.com/mapfiles/kml/paddle/ltblu-circle-lv.png</href>
			</ItemIcon>
		</ListStyle>
	</Style>
	<Style id="sh_ltblu-circle3">
		<IconStyle>
			<scale>1.18182</scale>
			<Icon>
				<href>http://maps.google.com/mapfiles/kml/paddle/ltblu-circle.png</href>
			</Icon>
			<hotSpot x="32" y="1" xunits="pixels" yunits="pixels"/>
		</IconStyle>
		<LabelStyle>
			<color>ffffff55</color>
		</LabelStyle>
		<ListStyle>
			<ItemIcon>
				<href>http://maps.google.com/mapfiles/kml/paddle/ltblu-circle-lv.png</href>
			</ItemIcon>
		</ListStyle>
	</Style>
	<Style id="sh_ltblu-circle4">
		<IconStyle>
			<scale>1.18182</scale>
			<Icon>
				<href>http://maps.google.com/mapfiles/kml/paddle/ltblu-circle.png</href>
			</Icon>
			<hotSpot x="32" y="1" xunits="pixels" yunits="pixels"/>
		</IconStyle>
		<LabelStyle>
			<color>ffffff55</color>
		</LabelStyle>
		<ListStyle>
			<ItemIcon>
				<href>http://maps.google.com/mapfiles/kml/paddle/ltblu-circle-lv.png</href>
			</ItemIcon>
		</ListStyle>
	</Style>
	<Style id="sh_red-diamond">
		<IconStyle>
			<scale>1.3</scale>
			<Icon>
				<href>http://maps.google.com/mapfiles/kml/paddle/red-diamond.png</href>
			</Icon>
			<hotSpot x="32" y="1" xunits="pixels" yunits="pixels"/>
		</IconStyle>
		<LabelStyle>
			<color>ff0000ff</color>
		</LabelStyle>
		<ListStyle>
			<ItemIcon>
				<href>http://maps.google.com/mapfiles/kml/paddle/red-diamond-lv.png</href>
			</ItemIcon>
		</ListStyle>
	</Style>
	<Style id="sh_red-diamond0">
		<IconStyle>
			<scale>1.3</scale>
			<Icon>
				<href>http://maps.google.com/mapfiles/kml/paddle/red-diamond.png</href>
			</Icon>
			<hotSpot x="32" y="1" xunits="pixels" yunits="pixels"/>
		</IconStyle>
		<LabelStyle>
			<color>ff0000ff</color>
		</LabelStyle>
		<ListStyle>
			<ItemIcon>
				<href>http://maps.google.com/mapfiles/kml/paddle/red-diamond-lv.png</href>
			</ItemIcon>
		</ListStyle>
	</Style>
	<Style id="sn_ltblu-circle">
		<IconStyle>
			<Icon>
				<href>http://maps.google.com/mapfiles/kml/paddle/ltblu-circle.png</href>
			</Icon>
			<hotSpot x="32" y="1" xunits="pixels" yunits="pixels"/>
		</IconStyle>
		<LabelStyle>
			<color>ffffff55</color>
		</LabelStyle>
		<ListStyle>
			<ItemIcon>
				<href>http://maps.google.com/mapfiles/kml/paddle/ltblu-circle-lv.png</href>
			</ItemIcon>
		</ListStyle>
	</Style>
	<Style id="sn_ltblu-circle0">
		<IconStyle>
			<scale>1.1</scale>
			<Icon>
				<href>http://maps.google.com/mapfiles/kml/paddle/ltblu-circle.png</href>
			</Icon>
			<hotSpot x="32" y="1" xunits="pixels" yunits="pixels"/>
		</IconStyle>
		<LabelStyle>
			<color>ffffff55</color>
		</LabelStyle>
		<ListStyle>
			<ItemIcon>
				<href>http://maps.google.com/mapfiles/kml/paddle/ltblu-circle-lv.png</href>
			</ItemIcon>
		</ListStyle>
	</Style>
	<Style id="sn_ltblu-circle00">
		<IconStyle>
			<Icon>
				<href>http://maps.google.com/mapfiles/kml/paddle/ltblu-circle.png</href>
			</Icon>
			<hotSpot x="32" y="1" xunits="pixels" yunits="pixels"/>
		</IconStyle>
		<LabelStyle>
			<color>ffffff55</color>
		</LabelStyle>
		<ListStyle>
			<ItemIcon>
				<href>http://maps.google.com/mapfiles/kml/paddle/ltblu-circle-lv.png</href>
			</ItemIcon>
		</ListStyle>
	</Style>
	<Style id="sn_ltblu-circle1">
		<IconStyle>
			<Icon>
				<href>http://maps.google.com/mapfiles/kml/paddle/ltblu-circle.png</href>
			</Icon>
			<hotSpot x="32" y="1" xunits="pixels" yunits="pixels"/>
		</IconStyle>
		<LabelStyle>
			<color>ffffff55</color>
		</LabelStyle>
		<ListStyle>
			<ItemIcon>
				<href>http://maps.google.com/mapfiles/kml/paddle/ltblu-circle-lv.png</href>
			</ItemIcon>
		</ListStyle>
	</Style>
	<Style id="sn_ltblu-circle3">
		<IconStyle>
			<Icon>
				<href>http://maps.google.com/mapfiles/kml/paddle/ltblu-circle.png</href>
			</Icon>
			<hotSpot x="32" y="1" xunits="pixels" yunits="pixels"/>
		</IconStyle>
		<LabelStyle>
			<color>ffffff55</color>
		</LabelStyle>
		<ListStyle>
			<ItemIcon>
				<href>http://maps.google.com/mapfiles/kml/paddle/ltblu-circle-lv.png</href>
			</ItemIcon>
		</ListStyle>
	</Style>
	<Style id="sn_ltblu-circle4">
		<IconStyle>
			<Icon>
				<href>http://maps.google.com/mapfiles/kml/paddle/ltblu-circle.png</href>
			</Icon>
			<hotSpot x="32" y="1" xunits="pixels" yunits="pixels"/>
		</IconStyle>
		<LabelStyle>
			<color>ffffff55</color>
		</LabelStyle>
		<ListStyle>
			<ItemIcon>
				<href>http://maps.google.com/mapfiles/kml/paddle/ltblu-circle-lv.png</href>
			</ItemIcon>
		</ListStyle>
	</Style>
	<Style id="sn_red-diamond">
		<IconStyle>
			<scale>1.1</scale>
			<Icon>
				<href>http://maps.google.com/mapfiles/kml/paddle/red-diamond.png</href>
			</Icon>
			<hotSpot x="32" y="1" xunits="pixels" yunits="pixels"/>
		</IconStyle>
		<LabelStyle>
			<color>ff0000ff</color>
		</LabelStyle>
		<ListStyle>
			<ItemIcon>
				<href>http://maps.google.com/mapfiles/kml/paddle/red-diamond-lv.png</href>
			</ItemIcon>
		</ListStyle>
	</Style>
	<Style id="sn_red-diamond0">
		<IconStyle>
			<scale>1.1</scale>
			<Icon>
				<href>http://maps.google.com/mapfiles/kml/paddle/red-diamond.png</href>
			</Icon>
			<hotSpot x="32" y="1" xunits="pixels" yunits="pixels"/>
		</IconStyle>
		<LabelStyle>
			<color>ff0000ff</color>
		</LabelStyle>
		<ListStyle>
			<ItemIcon>
				<href>http://maps.google.com/mapfiles/kml/paddle/red-diamond-lv.png</href>
			</ItemIcon>
		</ListStyle>
	</Style>
	<Folder>
		<name>CGI Points v3</name>
		<Folder>
			<name>West Practice Area</name>
			<Placemark>
				<name>Advance</name>
				<styleUrl>#msn_ltblu-circle4</styleUrl>
				<Point>
					<coordinates>-89.9105029,37.1040685,0</coordinates>
				</Point>
			</Placemark>
			<Placemark>
				<name>Oran</name>
				<styleUrl>#msn_ltblu-circle4</styleUrl>
				<Point>
					<coordinates>-89.65581589999999,37.0852061,0</coordinates>
				</Point>
			</Placemark>
			<Placemark>
				<name>Bird Hill</name>
				<styleUrl>#msn_ltblu-circle4</styleUrl>
				<Point>
					<coordinates>-89.766116,37.0906869,0</coordinates>
				</Point>
			</Placemark>
			<Placemark>
				<name>Block Hole</name>
				<styleUrl>#msn_ltblu-circle4</styleUrl>
				<Point>
					<coordinates>-89.84012439999999,37.2133803,0</coordinates>
				</Point>
			</Placemark>
			<Placemark>
				<name>Ag Strip</name>
				<styleUrl>#msn_red-diamond0</styleUrl>
				<Point>
					<coordinates>-89.7940261,37.0848781,0</coordinates>
				</Point>
			</Placemark>
		</Folder>
		<Folder>
			<name>Northwest Practice Area</name>
			<Placemark>
				<name>Apple Creek</name>
				<styleUrl>#icon-503-0288D1-nodesc</styleUrl>
				<Point>
					<coordinates>-89.7512895,37.6133717,0</coordinates>
				</Point>
			</Placemark>
			<Placemark>
				<name>Daisy</name>
				<styleUrl>#msn_ltblu-circle0</styleUrl>
				<Point>
					<coordinates>-89.79385910000001,37.5231864,0</coordinates>
				</Point>
			</Placemark>
			<Placemark>
				<name>North Mine</name>
				<styleUrl>#icon-503-0288D1-nodesc1</styleUrl>
				<Point>
					<coordinates>-89.77433765814614,37.40138128113223,0</coordinates>
				</Point>
			</Placemark>
			<Placemark>
				<name>P&amp;G</name>
				<styleUrl>#icon-503-0288D1-nodesc9</styleUrl>
				<Point>
					<coordinates>-89.5102045,37.4840293,0</coordinates>
				</Point>
			</Placemark>
			<Placemark>
				<name>Pocahontas</name>
				<LookAt>
					<longitude>-89.6561570774919</longitude>
					<latitude>37.49561200725304</latitude>
					<altitude>0</altitude>
					<heading>-0.4853647672484949</heading>
					<tilt>20.68289789083829</tilt>
					<range>11896.64244769315</range>
					<gx:altitudeMode>relativeToSeaFloor</gx:altitudeMode>
				</LookAt>
				<styleUrl>#msn_ltblu-circle1</styleUrl>
				<Point>
					<gx:drawOrder>1</gx:drawOrder>
					<coordinates>-89.63970638372139,37.50004734607768,0</coordinates>
				</Point>
			</Placemark>
			<Placemark>
				<name>Scopus</name>
				<LookAt>
					<longitude>-89.91455648980583</longitude>
					<latitude>37.40059358415923</latitude>
					<altitude>0</altitude>
					<heading>-0.2852254766443575</heading>
					<tilt>11.29130222846133</tilt>
					<range>3099.026414750807</range>
					<gx:altitudeMode>relativeToSeaFloor</gx:altitudeMode>
				</LookAt>
				<styleUrl>#msn_ltblu-circle1</styleUrl>
				<Point>
					<gx:drawOrder>1</gx:drawOrder>
					<coordinates>-89.92205613444062,37.39899486131314,0</coordinates>
				</Point>
			</Placemark>
		</Folder>
		<Folder>
			<name>Northeast Practice Area</name>
			<Placemark>
				<name>Cobden</name>
				<styleUrl>#icon-503-0288D1-nodesc2</styleUrl>
				<Point>
					<coordinates>-89.25409000000001,37.5323375,0</coordinates>
				</Point>
			</Placemark>
			<Placemark>
				<name>Tower Rock</name>
				<styleUrl>#icon-503-0288D1-nodesc13</styleUrl>
				<Point>
					<coordinates>-89.5147683,37.6318307,0</coordinates>
				</Point>
			</Placemark>
			<Placemark>
				<name>Anna Quarry</name>
				<styleUrl>#icon-503-0288D1-nodesc6</styleUrl>
				<Point>
					<coordinates>-89.23426859999999,37.4671775,0</coordinates>
				</Point>
			</Placemark>
			<Placemark>
				<name>Wolf Lake</name>
				<styleUrl>#icon-503-0288D1-nodesc15</styleUrl>
				<Point>
					<coordinates>-89.4377449,37.503644,0</coordinates>
				</Point>
			</Placemark>
		</Folder>
		<Folder>
			<name>East Practice Area</name>
			<Placemark>
				<name>East Mine</name>
				<styleUrl>#icon-503-0288D1-nodesc10</styleUrl>
				<Point>
					<coordinates>-89.32810739999999,37.2772335,0</coordinates>
				</Point>
			</Placemark>
			<Placemark>
				<name>Tamms</name>
				<styleUrl>#msn_ltblu-circle2</styleUrl>
				<Point>
					<coordinates>-89.2695839,37.234981,0</coordinates>
				</Point>
			</Placemark>
			<Placemark>
				<name>Ullin</name>
				<LookAt>
					<longitude>-89.19360484459281</longitude>
					<latitude>37.27056280132269</latitude>
					<altitude>0</altitude>
					<heading>0.09619508271975757</heading>
					<tilt>3.828637544546009</tilt>
					<range>11737.80007412212</range>
					<gx:altitudeMode>relativeToSeaFloor</gx:altitudeMode>
				</LookAt>
				<styleUrl>#msn_ltblu-circle1</styleUrl>
				<Point>
					<gx:drawOrder>1</gx:drawOrder>
					<coordinates>-89.18469219440919,37.27543102376518,0</coordinates>
				</Point>
			</Placemark>
			<Placemark>
				<name>Bluff Lake</name>
				<styleUrl>#icon-503-0288D1-nodesc3</styleUrl>
				<Point>
					<coordinates>-89.3543421,37.3773805,0</coordinates>
				</Point>
			</Placemark>
			<Placemark>
				<name>Elco</name>
				<LookAt>
					<longitude>-89.26115179762833</longitude>
					<latitude>37.30305611872162</latitude>
					<altitude>0</altitude>
					<heading>0.07471939403663211</heading>
					<tilt>16.04338309618218</tilt>
					<range>1645.431880841872</range>
					<gx:altitudeMode>relativeToSeaFloor</gx:altitudeMode>
				</LookAt>
				<styleUrl>#m_ylw-pushpin2</styleUrl>
				<Point>
					<gx:drawOrder>1</gx:drawOrder>
					<coordinates>-89.26417010880149,37.30233966898934,0</coordinates>
				</Point>
			</Placemark>
		</Folder>
		<Folder>
			<name>Southeast Practice Area</name>
			<Placemark>
				<name>Stranded Barge</name>
				<LookAt>
					<longitude>-89.35063486400445</longitude>
					<latitude>37.08839444638736</latitude>
					<altitude>0</altitude>
					<heading>-0.2493458739952674</heading>
					<tilt>12.43820169533874</tilt>
					<range>1773.195799358002</range>
					<gx:altitudeMode>relativeToSeaFloor</gx:altitudeMode>
				</LookAt>
				<styleUrl>#msn_ltblu-circle1</styleUrl>
				<Point>
					<gx:drawOrder>1</gx:drawOrder>
					<coordinates>-89.35242631607105,37.08775949807025,0</coordinates>
				</Point>
			</Placemark>
			<Placemark>
				<name>Horseshoe Lake</name>
				<styleUrl>#msn_ltblu-circle</styleUrl>
				<Point>
					<coordinates>-89.34140650000001,37.1318803,0</coordinates>
				</Point>
			</Placemark>
			<Placemark>
				<name>Blue Hole</name>
				<styleUrl>#msn_ltblu-circle3</styleUrl>
				<Point>
					<coordinates>-89.1269506,36.9623315,0</coordinates>
				</Point>
			</Placemark>
			<Placemark>
				<name>Price Landing</name>
				<styleUrl>#msn_ltblu-circle3</styleUrl>
				<Point>
					<coordinates>-89.3634587,37.0280661,0</coordinates>
				</Point>
			</Placemark>
			<Placemark>
				<name>Swamp Lake</name>
				<styleUrl>#msn_ltblu-circle3</styleUrl>
				<Point>
					<coordinates>-89.3744682,36.956238,0</coordinates>
				</Point>
			</Placemark>
			<Placemark>
				<name>Browns Bar</name>
				<styleUrl>#msn_ltblu-circle3</styleUrl>
				<Point>
					<coordinates>-89.27956759999999,36.9958326,0</coordinates>
				</Point>
			</Placemark>
			<Placemark>
				<name>Blodgett</name>
				<styleUrl>#msn_ltblu-circle3</styleUrl>
				<Point>
					<coordinates>-89.52722559999999,37.0039671,0</coordinates>
				</Point>
			</Placemark>
			<Placemark>
				<name>Heli Base</name>
				<styleUrl>#msn_red-diamond</styleUrl>
				<Point>
					<coordinates>-89.53508600000001,36.9424004,0</coordinates>
				</Point>
			</Placemark>
		</Folder>
		<Folder>
			<name>Southwest Practice Area</name>
			<Placemark>
				<name>Tanner</name>
				<LookAt>
					<longitude>-89.6862117211658</longitude>
					<latitude>36.91911944009489</latitude>
					<altitude>0</altitude>
					<heading>-0.4946946059986255</heading>
					<tilt>12.80480400236833</tilt>
					<range>6256.417057689767</range>
					<gx:altitudeMode>relativeToSeaFloor</gx:altitudeMode>
				</LookAt>
				<styleUrl>#msn_ltblu-circle1</styleUrl>
				<Point>
					<gx:drawOrder>1</gx:drawOrder>
					<coordinates>-89.68432839386507,36.91778786267426,0</coordinates>
				</Point>
			</Placemark>
			<Placemark>
				<name>Purina</name>
				<styleUrl>#icon-503-0288D1-nodesc11</styleUrl>
				<Point>
					<coordinates>-89.8687449,36.962416,0</coordinates>
				</Point>
			</Placemark>
			<Placemark>
				<name>Vanduser</name>
				<styleUrl>#icon-503-0288D1-nodesc14</styleUrl>
				<Point>
					<coordinates>-89.6868758,36.9906697,0</coordinates>
				</Point>
			</Placemark>
			<Placemark>
				<name>Bloomfield</name>
				<styleUrl>#icon-503-0288D1-nodesc5</styleUrl>
				<Point>
					<coordinates>-89.9288627,36.884982,0</coordinates>
				</Point>
			</Placemark>
			<Placemark>
				<name>Bell City</name>
				<styleUrl>#icon-503-0288D1-nodesc8</styleUrl>
				<Point>
					<coordinates>-89.81986879999999,37.0228509,0</coordinates>
				</Point>
			</Placemark>
			<Placemark>
				<name>Circle City</name>
				<styleUrl>#icon-503-0288D1-nodesc12</styleUrl>
				<Point>
					<coordinates>-89.8032414,36.8584166,0</coordinates>
				</Point>
			</Placemark>
		</Folder>
		<atom:link rel="app" href="https://www.google.com/earth/about/versions/#earth-pro" title="Google Earth Pro 7.3.6.10201"></atom:link>
	</Folder>
</Document>
</kml>
